IRIDIUM 116             
1 43072U 17083C   24138.80790285  .00000625  00000+0  21610-3 0  9997
2 43072  86.3936 279.7660 0002126  95.2354 264.9084 14.34218299335185
IRIDIUM 130             
1 43073U 17083D   24139.12503590  .00000100  00000+0  28799-4 0  9999
2 43073  86.3944 279.8349 0002068  93.6631 266.4801 14.34216541335176
IRIDIUM 151             
1 43074U 17083E   24138.89036149  .00000901  00000+0  31454-3 0  9994
2 43074  86.3938 279.7720 0002436  92.7799 267.3676 14.34216601335162
IRIDIUM 134             
1 43075U 17083F   24139.13771754  .00000054  00000+0  12100-4 0  9998
2 43075  86.3938 279.6658 0002018  96.1948 263.9477 14.34215001335166
IRIDIUM 137             
1 43076U 17083G   24139.15040314  .00000047  00000+0  96655-5 0  9992
2 43076  86.3941 279.7385 0002455 103.8334 256.3135 14.34215989335239
IRIDIUM 141             
1 43077U 17083H   24139.49290218  .00000801  00000+0  27892-3 0  9993
2 43077  86.3937 279.4689 0002177  89.8232 270.3213 14.34217546335289
IRIDIUM 153             
1 43078U 17083J   24139.02645783  .00001109  00000+0  38901-3 0  9999
2 43078  86.3981 248.1114 0002367  83.1391 277.0074 14.34215050336322
IRIDIUM 131             
1 43079U 17083K   24139.48021658  .00000431  00000+0  14666-3 0  9998
2 43079  86.3941 279.6095 0002312  97.5001 262.6458 14.34217930335215
